{
  "type": "FeatureCollection",
  "features": [
    {
      "type": "Feature",
      "properties": {
        "norad_id": 64751,
        "name": "PROGRESS-MS 31",
        "group": "stations",
        "lat": -39.993687424429154,
        "lon": 11.296056106831536,
        "alt_km": 420.12242604264156,
        "timestamp": "2025-12-11T07:02:22.498575+00:00",
        "meta_object_name": "PROGRESS-MS 31",
        "meta_object_id": "2025-146A",
        "meta_epoch": "2025-12-10T22:17:24.112320",
        "meta_mean_motion": 15.49489378,
        "meta_eccentricity": 0.00033509,
        "meta_inclination": 51.6309,
        "meta_ra_of_asc_node": 151.4463,
        "meta_arg_of_pericenter": 232.8214,
        "meta_mean_anomaly": 127.2469,
        "meta_ephemeris_type": 0,
        "meta_classification_type": "U",
        "meta_norad_cat_id": 64751,
        "meta_element_set_no": 999,
        "meta_rev_at_epoch": 675,
        "meta_bstar": 0.00026508679,
        "meta_mean_motion_dot": 0.00014434,
        "meta_mean_motion_ddot": 0,
        "tle_line1": "1 64751U 25146A   25344.92875130  .00014434  00000+0  26509-3 0  9994",
        "tle_line2": "2 64751  51.6309 151.4463 0003350 232.8214 127.2469 15.49489378  6753"
      },
      "geometry": {
        "type": "Point",
        "coordinates": [
          11.296056106831536,
          -39.993687424429154
        ]
      }
    },
    {
      "type": "Feature",
      "properties": {
        "norad_id": 64786,
        "name": "TIANZHOU-9",
        "group": "stations",
        "lat": -37.94756788808296,
        "lon": -36.52321748331944,
        "alt_km": 392.8980742250469,
        "timestamp": "2025-12-11T07:02:22.498585+00:00",
        "meta_object_name": "TIANZHOU-9",
        "meta_object_id": "2025-149A",
        "meta_epoch": "2025-12-10T20:34:09.975360",
        "meta_mean_motion": 15.59054125,
        "meta_eccentricity": 0.0008705,
        "meta_inclination": 41.4684,
        "meta_ra_of_asc_node": 28.1364,
        "meta_arg_of_pericenter": 14.9689,
        "meta_mean_anomaly": 345.1405,
        "meta_ephemeris_type": 0,
        "meta_classification_type": "U",
        "meta_norad_cat_id": 64786,
        "meta_element_set_no": 999,
        "meta_rev_at_epoch": 25530,
        "meta_bstar": 0.00042990708,
        "meta_mean_motion_dot": 0.0003436,
        "meta_mean_motion_ddot": 0,
        "tle_line1": "1 64786U 25149A   25344.85705990  .00034360  00000+0  42991-3 0  9996",
        "tle_line2": "2 64786  41.4684  28.1364 0008705  14.9689 345.1405 15.59054125255305"
      },
      "geometry": {
        "type": "Point",
        "coordinates": [
          -36.52321748331944,
          -37.94756788808296
        ]
      }
    },
    {
      "type": "Feature",
      "properties": {
        "norad_id": 65077,
        "name": "CREW DRAGON 11",
        "group": "stations",
        "lat": -39.99368818051977,
        "lon": 11.296057471695397,
        "alt_km": 420.12242607697226,
        "timestamp": "2025-12-11T07:02:22.498595+00:00",
        "meta_object_name": "CREW DRAGON 11",
        "meta_object_id": "2025-166A",
        "meta_epoch": "2025-12-10T22:17:24.112320",
        "meta_mean_motion": 15.49489378,
        "meta_eccentricity": 0.00033509,
        "meta_inclination": 51.6309,
        "meta_ra_of_asc_node": 151.4463,
        "meta_arg_of_pericenter": 232.8214,
        "meta_mean_anomaly": 127.2469,
        "meta_ephemeris_type": 0,
        "meta_classification_type": "U",
        "meta_norad_cat_id": 65077,
        "meta_element_set_no": 999,
        "meta_rev_at_epoch": 214,
        "meta_bstar": 0.00026508679,
        "meta_mean_motion_dot": 0.00014434,
        "meta_mean_motion_ddot": 0,
        "tle_line1": "1 65077U 25166A   25344.92875130  .00014434  00000+0  26509-3 0  9998",
        "tle_line2": "2 65077  51.6309 151.4463 0003350 232.8214 127.2469 15.49489378  2144"
      },
      "geometry": {
        "type": "Point",
        "coordinates": [
          11.296057471695397,
          -39.99368818051977
        ]
      }
    },
    {
      "type": "Feature",
      "properties": {
        "norad_id": 65304,
        "name": "DRAGON CRS-33",
        "group": "stations",
        "lat": -39.99368855856492,
        "lon": 11.296058154127087,
        "alt_km": 420.1224260941335,
        "timestamp": "2025-12-11T07:02:22.498605+00:00",
        "meta_object_name": "DRAGON CRS-33",
        "meta_object_id": "2025-186A",
        "meta_epoch": "2025-12-10T22:17:24.112320",
        "meta_mean_motion": 15.49489378,
        "meta_eccentricity": 0.00033509,
        "meta_inclination": 51.6309,
        "meta_ra_of_asc_node": 151.4463,
        "meta_arg_of_pericenter": 232.8214,
        "meta_mean_anomaly": 127.2469,
        "meta_ephemeris_type": 0,
        "meta_classification_type": "U",
        "meta_norad_cat_id": 65304,
        "meta_element_set_no": 999,
        "meta_rev_at_epoch": 11,
        "meta_bstar": 0.00026508679,
        "meta_mean_motion_dot": 0.00014434,
        "meta_mean_motion_ddot": 0,
        "tle_line1": "1 65304U 25186A   25344.92875130  .00014434  00000+0  26509-3 0  9993",
        "tle_line2": "2 65304  51.6309 151.4463 0003350 232.8214 127.2469 15.49489378   112"
      },
      "geometry": {
        "type": "Point",
        "coordinates": [
          11.296058154127087,
          -39.99368855856492
        ]
      }
    },
    {
      "type": "Feature",
      "properties": {
        "norad_id": 65586,
        "name": "PROGRESS-MS 32",
        "group": "stations",
        "lat": -39.99368893660985,
        "lon": 11.296058836558359,
        "alt_km": 420.1224261112993,
        "timestamp": "2025-12-11T07:02:22.498615+00:00",
        "meta_object_name": "PROGRESS-MS 32",
        "meta_object_id": "2025-204A",
        "meta_epoch": "2025-12-10T22:17:24.112320",
        "meta_mean_motion": 15.49489378,
        "meta_eccentricity": 0.00033509,
        "meta_inclination": 51.6309,
        "meta_ra_of_asc_node": 151.4463,
        "meta_arg_of_pericenter": 232.8214,
        "meta_mean_anomaly": 127.2469,
        "meta_ephemeris_type": 0,
        "meta_classification_type": "U",
        "meta_norad_cat_id": 65586,
        "meta_element_set_no": 999,
        "meta_rev_at_epoch": 27,
        "meta_bstar": 0.00026508679,
        "meta_mean_motion_dot": 0.00014434,
        "meta_mean_motion_ddot": 0,
        "tle_line1": "1 65586U 25204A   25344.92875130  .00014434  00000+0  26509-3 0  9996",
        "tle_line2": "2 65586  51.6309 151.4463 0003350 232.8214 127.2469 15.49489378   271"
      },
      "geometry": {
        "type": "Point",
        "coordinates": [
          11.296058836558359,
          -39.99368893660985
        ]
      }
    },
    {
      "type": "Feature",
      "properties": {
        "norad_id": 65616,
        "name": "CYGNUS NG-23",
        "group": "stations",
        "lat": -39.99368939026404,
        "lon": 11.296059655476439,
        "alt_km": 420.12242613189574,
        "timestamp": "2025-12-11T07:02:22.498627+00:00",
        "meta_object_name": "CYGNUS NG-23",
        "meta_object_id": "2025-208A",
        "meta_epoch": "2025-12-10T22:17:24.112320",
        "meta_mean_motion": 15.49489378,
        "meta_eccentricity": 0.00033509,
        "meta_inclination": 51.6309,
        "meta_ra_of_asc_node": 151.4463,
        "meta_arg_of_pericenter": 232.8214,
        "meta_mean_anomaly": 127.2469,
        "meta_ephemeris_type": 0,
        "meta_classification_type": "U",
        "meta_norad_cat_id": 65616,
        "meta_element_set_no": 999,
        "meta_rev_at_epoch": 22,
        "meta_bstar": 0.00026508679,
        "meta_mean_motion_dot": 0.00014434,
        "meta_mean_motion_ddot": 0,
        "tle_line1": "1 65616U 25208A   25344.92875130  .00014434  00000+0  26509-3 0  9994",
        "tle_line2": "2 65616  51.6309 151.4463 0003350 232.8214 127.2469 15.49489378   220"
      },
      "geometry": {
        "type": "Point",
        "coordinates": [
          11.296059655476439,
          -39.99368939026404
        ]
      }
    },
    {
      "type": "Feature",
      "properties": {
        "norad_id": 65729,
        "name": "DRAGONFLY",
        "group": "stations",
        "lat": 50.90857339790924,
        "lon": -114.10296746008504,
        "alt_km": 352.6745698014238,
        "timestamp": "2025-12-11T07:02:22.498638+00:00",
        "meta_object_name": "DRAGONFLY",
        "meta_object_id": "1998-067XH",
        "meta_epoch": "2025-12-10T19:56:18.630816",
        "meta_mean_motion": 15.71044104,
        "meta_eccentricity": 0.00065809,
        "meta_inclination": 51.6249,
        "meta_ra_of_asc_node": 145.5341,
        "meta_arg_of_pericenter": 265.1045,
        "meta_mean_anomaly": 94.9201,
        "meta_ephemeris_type": 0,
        "meta_classification_type": "U",
        "meta_norad_cat_id": 65729,
        "meta_element_set_no": 999,
        "meta_rev_at_epoch": 1286,
        "meta_bstar": 0.0016067518,
        "meta_mean_motion_dot": 0.00211019,
        "meta_mean_motion_ddot": 0,
        "tle_line1": "1 65729U 98067XH  25344.83077119  .00211019  00000+0  16068-2 0  9999",
        "tle_line2": "2 65729  51.6249 145.5341 0006580 265.1045  94.9201 15.71044104 12862"
      },
      "geometry": {
        "type": "Point",
        "coordinates": [
          -114.10296746008504,
          50.90857339790924
        ]
      }
    }
  ]
}